ORBCOMM FM20            
1 25416U 98046D   25185.07906196  .00000538  00000+0  22624-3 0  9998
2 25416  44.9943 101.2726 0002172 351.4094   8.6716 14.37234237406699
ORBCOMM FM16            
1 25417U 98046E   25185.88814197  .00000868  00000+0  32474-3 0  9997
2 25417  44.9940  88.7793 0005641  20.7496 339.3580 14.38947576406800
ORBCOMM FM15            
1 25418U 98046F   25185.72977115  .00000758  00000+0  29144-3 0  9999
2 25418  44.9970  94.7285 0005288  18.0836 342.0200 14.38589162406771
ORBCOMM FM14            
1 25419U 98046G   25185.81257666  .00000768  00000+0  29265-3 0  9997
2 25419  44.9959  92.5218 0004197  13.0294 347.0662 14.38952553406755
ORBCOMM FM13            
1 25420U 98046H   25185.45561647  .00000705  00000+0  27932-3 0  9996
2 25420  44.9975 102.3620 0006432 359.3681   0.7158 14.37699992405725
ORBCOMM FM21            
1 25475U 98053A   25185.39634831  .00000442  00000+0  19390-3 0  9990
2 25475  45.0068 187.9959 0003760 292.1034  67.9414 14.37372871399727
ORBCOMM FM22            
1 25476U 98053B   25185.35140322  .00000578  00000+0  23392-3 0  9991
2 25476  45.0057 182.9222 0005545 299.7681  60.2616 14.38417405399744
ORBCOMM FM23            
1 25477U 98053C   25185.74236775  .00000506  00000+0  21408-3 0  9990
2 25477  45.0065 188.4557 0004759 294.6779  65.3573 14.37558035399926
